start=new Date('2022-08-23T00:00:00.000Z').valueOf();
sats=[{"MEAN_ELEMENT_THEORY":"SGP4","TLE_LINE2":"2 52670  53.2183 206.5804 0002389  54.7684 209.6233 15.08837411  1302","CLASSIFICATION_TYPE":"U","SITE":"AFETR","NORAD_CAT_ID":"52670","SEMIMAJOR_AXIS":"6917.888","LAUNCH_DATE":"2022-05-18","TLE_LINE1":"1 52670U 22053Q   22234.91667824  .00022506  00000-0  14277-2 0  9996","ARG_OF_PERICENTER":"54.7684","EPHEMERIS_TYPE":"0","REF_FRAME":"TEME","OBJECT_ID":"2022-053Q","TIME_SYSTEM":"UTC","DECAY_DATE":null,"MEAN_ANOMALY":"209.6233","BSTAR":"0.00142770000000","OBJECT_NAME":"STARLINK-4075","PERIOD":"95.438","ECCENTRICITY":"0.00023890","RCS_SIZE":"LARGE","COUNTRY_CODE":"US","REV_AT_EPOCH":"130","EPOCH":"2022-08-22T22:00:00.999936","INCLINATION":"53.2183","FILE":"3544179","PERIAPSIS":"538.101","CENTER_NAME":"EARTH","MEAN_MOTION":"15.08837411","OBJECT_TYPE":"PAYLOAD","GP_ID":"210779380","MEAN_MOTION_DDOT":"0.0000000000000","RA_OF_ASC_NODE":"206.5804","MEAN_MOTION_DOT":"0.00022506","ELEMENT_SET_NO":"999","APOAPSIS":"541.406"},{"PERIOD":"95.439","RCS_SIZE":"LARGE","ECCENTRICITY":"0.00022420","OBJECT_NAME":"STARLINK-4071","EPOCH":"2022-08-22T22:00:00.999936","INCLINATION":"53.2173","REV_AT_EPOCH":"130","COUNTRY_CODE":"US","MEAN_MOTION":"15.08822091","GP_ID":"210779664","OBJECT_TYPE":"PAYLOAD","FILE":"3544179","CENTER_NAME":"EARTH","PERIAPSIS":"538.249","APOAPSIS":"541.351","ELEMENT_SET_NO":"999","MEAN_MOTION_DOT":"0.00025246","RA_OF_ASC_NODE":"206.5768","MEAN_MOTION_DDOT":"0.0000000000000","MEAN_ELEMENT_THEORY":"SGP4","CLASSIFICATION_TYPE":"U","TLE_LINE2":"2 52671  53.2173 206.5768 0002242  51.5614 318.0102 15.08822091  1305","TLE_LINE1":"1 52671U 22053R   22234.91667824  .00025246  00000-0  15994-2 0  9998","SEMIMAJOR_AXIS":"6917.935","LAUNCH_DATE":"2022-05-18","ARG_OF_PERICENTER":"51.5614","SITE":"AFETR","NORAD_CAT_ID":"52671","TIME_SYSTEM":"UTC","DECAY_DATE":null,"BSTAR":"0.00159940000000","MEAN_ANOMALY":"318.0102","EPHEMERIS_TYPE":"0","OBJECT_ID":"2022-053R","REF_FRAME":"TEME"},{"MEAN_ELEMENT_THEORY":"SGP4","CLASSIFICATION_TYPE":"U","TLE_LINE2":"2 52672  53.2178 206.5805 0002424  50.4638 259.0964 15.08838086  1300","ARG_OF_PERICENTER":"50.4638","TLE_LINE1":"1 52672U 22053S   22234.91667824  .00025323  00000-0  16035-2 0  9992","LAUNCH_DATE":"2022-05-18","SEMIMAJOR_AXIS":"6917.886","NORAD_CAT_ID":"52672","SITE":"AFETR","BSTAR":"0.00160350000000","DECAY_DATE":null,"MEAN_ANOMALY":"259.0964","TIME_SYSTEM":"UTC","OBJECT_ID":"2022-053S","REF_FRAME":"TEME","EPHEMERIS_TYPE":"0","RCS_SIZE":"LARGE","ECCENTRICITY":"0.00024240","PERIOD":"95.438","OBJECT_NAME":"STARLINK-4073","INCLINATION":"53.2178","EPOCH":"2022-08-22T22:00:00.999936","REV_AT_EPOCH":"130","COUNTRY_CODE":"US","GP_ID":"210779937","OBJECT_TYPE":"PAYLOAD","MEAN_MOTION":"15.08838086","CENTER_NAME":"EARTH","PERIAPSIS":"538.074","FILE":"3544179","APOAPSIS":"541.428","ELEMENT_SET_NO":"999","MEAN_MOTION_DOT":"0.00025323","MEAN_MOTION_DDOT":"0.0000000000000","RA_OF_ASC_NODE":"206.5805"},{"TLE_LINE1":"1 52673U 22053T   22234.91667824  .00023307  00000-0  14782-2 0  9990","SEMIMAJOR_AXIS":"6917.926","LAUNCH_DATE":"2022-05-18","ARG_OF_PERICENTER":"52.8187","NORAD_CAT_ID":"52673","SITE":"AFETR","TIME_SYSTEM":"UTC","BSTAR":"0.00147820000000","DECAY_DATE":null,"MEAN_ANOMALY":"356.7321","EPHEMERIS_TYPE":"0","OBJECT_ID":"2022-053T","REF_FRAME":"TEME","MEAN_ELEMENT_THEORY":"SGP4","CLASSIFICATION_TYPE":"U","TLE_LINE2":"2 52673  53.2153 206.5687 0002211  52.8187 356.7321 15.08825098  1302","MEAN_MOTION":"15.08825098","GP_ID":"210780220","OBJECT_TYPE":"PAYLOAD","FILE":"3544179","PERIAPSIS":"538.261","CENTER_NAME":"EARTH","APOAPSIS":"541.320","ELEMENT_SET_NO":"999","MEAN_MOTION_DOT":"0.00023307","MEAN_MOTION_DDOT":"0.0000000000000","RA_OF_ASC_NODE":"206.5687","PERIOD":"95.438","RCS_SIZE":"LARGE","ECCENTRICITY":"0.00022110","OBJECT_NAME":"STARLINK-3976","EPOCH":"2022-08-22T22:00:00.999936","INCLINATION":"53.2153","REV_AT_EPOCH":"130","COUNTRY_CODE":"US"},{"ELEMENT_SET_NO":"999","APOAPSIS":"541.469","MEAN_MOTION_DOT":"0.00025835","RA_OF_ASC_NODE":"206.5837","MEAN_MOTION_DDOT":"0.0000000000000","MEAN_MOTION":"15.08818702","GP_ID":"210779796","OBJECT_TYPE":"PAYLOAD","FILE":"3544179","PERIAPSIS":"538.152","CENTER_NAME":"EARTH","EPOCH":"2022-08-22T22:00:00.999936","INCLINATION":"53.2190","REV_AT_EPOCH":"130","COUNTRY_CODE":"US","PERIOD":"95.439","RCS_SIZE":"LARGE","ECCENTRICITY":"0.00023970","OBJECT_NAME":"STARLINK-3936","TIME_SYSTEM":"UTC","MEAN_ANOMALY":"281.0796","DECAY_DATE":null,"BSTAR":"0.00163630000000","EPHEMERIS_TYPE":"0","OBJECT_ID":"2022-053U","REF_FRAME":"TEME","TLE_LINE1":"1 52674U 22053U   22234.91667824  .00025835  00000-0  16363-2 0  9996","SEMIMAJOR_AXIS":"6917.945","LAUNCH_DATE":"2022-05-18","ARG_OF_PERICENTER":"48.5309","SITE":"AFETR","NORAD_CAT_ID":"52674","CLASSIFICATION_TYPE":"U","TLE_LINE2":"2 52674  53.2190 206.5837 0002397  48.5309 281.0796 15.08818702  1304","MEAN_ELEMENT_THEORY":"SGP4"},{"MEAN_MOTION_DDOT":"0.0000000000000","RA_OF_ASC_NODE":"196.5820","APOAPSIS":"541.321","ELEMENT_SET_NO":"999","MEAN_MOTION_DOT":"-0.00029187","CENTER_NAME":"EARTH","PERIAPSIS":"538.035","FILE":"3544179","GP_ID":"210780078","OBJECT_TYPE":"PAYLOAD","MEAN_MOTION":"15.08861929","REV_AT_EPOCH":"130","COUNTRY_CODE":"US","INCLINATION":"53.2136","EPOCH":"2022-08-22T22:00:00.999936","OBJECT_NAME":"STARLINK-3934","RCS_SIZE":"LARGE","ECCENTRICITY":"0.00023750","PERIOD":"95.436","OBJECT_ID":"2022-053V","REF_FRAME":"TEME","EPHEMERIS_TYPE":"0","DECAY_DATE":null,"MEAN_ANOMALY":"11.9389","BSTAR":"-0.00182200000000","TIME_SYSTEM":"UTC","SITE":"AFETR","NORAD_CAT_ID":"52675","ARG_OF_PERICENTER":"52.6343","TLE_LINE1":"1 52675U 22053V   22234.91667824 -.00029187  00000-0 -18220-2 0  9997","LAUNCH_DATE":"2022-05-18","SEMIMAJOR_AXIS":"6917.813","TLE_LINE2":"2 52675  53.2136 196.5820 0002375  52.6343  11.9389 15.08861929  1302","CLASSIFICATION_TYPE":"U","MEAN_ELEMENT_THEORY":"SGP4"},{"CLASSIFICATION_TYPE":"U","TLE_LINE2":"2 52676  53.2162 206.5730 0002343  53.0878 336.5301 15.08823857  1305","MEAN_ELEMENT_THEORY":"SGP4","TIME_SYSTEM":"UTC","MEAN_ANOMALY":"336.5301","DECAY_DATE":null,"BSTAR":"0.00155230000000","EPHEMERIS_TYPE":"0","OBJECT_ID":"2022-053W","REF_FRAME":"TEME","TLE_LINE1":"1 52676U 22053W   22234.91667824  .00024493  00000-0  15523-2 0  9994","SEMIMAJOR_AXIS":"6917.930","LAUNCH_DATE":"2022-05-18","ARG_OF_PERICENTER":"53.0878","SITE":"AFETR","NORAD_CAT_ID":"52676","EPOCH":"2022-08-22T22:00:00.999936","INCLINATION":"53.2162","REV_AT_EPOCH":"130","COUNTRY_CODE":"US","PERIOD":"95.439","RCS_SIZE":"LARGE","ECCENTRICITY":"0.00023430","OBJECT_NAME":"STARLINK-4006","ELEMENT_SET_NO":"999","APOAPSIS":"541.416","MEAN_MOTION_DOT":"0.00024493","MEAN_MOTION_DDOT":"0.0000000000000","RA_OF_ASC_NODE":"206.5730","MEAN_MOTION":"15.08823857","GP_ID":"210779523","OBJECT_TYPE":"PAYLOAD","FILE":"3544179","PERIAPSIS":"538.174","CENTER_NAME":"EARTH"},{"REV_AT_EPOCH":"130","COUNTRY_CODE":"US","INCLINATION":"53.2138","EPOCH":"2022-08-22T22:00:00.999936","OBJECT_NAME":"STARLINK-4028","RCS_SIZE":"LARGE","ECCENTRICITY":"0.00021850","PERIOD":"95.437","RA_OF_ASC_NODE":"196.5800","MEAN_MOTION_DDOT":"0.0000000000000","APOAPSIS":"541.252","ELEMENT_SET_NO":"999","MEAN_MOTION_DOT":"0.00012682","PERIAPSIS":"538.229","CENTER_NAME":"EARTH","FILE":"3544179","GP_ID":"210780370","OBJECT_TYPE":"PAYLOAD","MEAN_MOTION":"15.08841474","TLE_LINE2":"2 52677  53.2138 196.5800 0002185  57.0264  47.4982 15.08841474  1300","CLASSIFICATION_TYPE":"U","MEAN_ELEMENT_THEORY":"SGP4","OBJECT_ID":"2022-053X","REF_FRAME":"TEME","EPHEMERIS_TYPE":"0","BSTAR":"0.00081342000000","DECAY_DATE":null,"MEAN_ANOMALY":"47.4982","TIME_SYSTEM":"UTC","SITE":"AFETR","NORAD_CAT_ID":"52677","ARG_OF_PERICENTER":"57.0264","TLE_LINE1":"1 52677U 22053X   22234.91667824  .00012682  00000-0  81342-3 0  9995","SEMIMAJOR_AXIS":"6917.876","LAUNCH_DATE":"2022-05-18"},{"REV_AT_EPOCH":"130","COUNTRY_CODE":"US","EPOCH":"2022-08-22T22:00:00.999936","INCLINATION":"53.2130","OBJECT_NAME":"STARLINK-4074","PERIOD":"95.437","RCS_SIZE":"LARGE","ECCENTRICITY":"0.00023280","MEAN_MOTION_DDOT":"0.0000000000000","RA_OF_ASC_NODE":"196.5808","ELEMENT_SET_NO":"999","APOAPSIS":"541.317","MEAN_MOTION_DOT":"0.00014722","FILE":"3544179","CENTER_NAME":"EARTH","PERIAPSIS":"538.096","MEAN_MOTION":"15.08852619","GP_ID":"210779381","OBJECT_TYPE":"PAYLOAD","TLE_LINE2":"2 52678  53.2130 196.5808 0002328  46.5915  12.7310 15.08852619  1309","CLASSIFICATION_TYPE":"U","MEAN_ELEMENT_THEORY":"SGP4","EPHEMERIS_TYPE":"0","OBJECT_ID":"2022-053Y","REF_FRAME":"TEME","TIME_SYSTEM":"UTC","BSTAR":"0.00094082000000","DECAY_DATE":null,"MEAN_ANOMALY":"12.7310","SITE":"AFETR","NORAD_CAT_ID":"52678","TLE_LINE1":"1 52678U 22053Y   22234.91667824  .00014722  00000-0  94082-3 0  9998","SEMIMAJOR_AXIS":"6917.842","LAUNCH_DATE":"2022-05-18","ARG_OF_PERICENTER":"46.5915"},{"REV_AT_EPOCH":"130","COUNTRY_CODE":"US","INCLINATION":"53.2144","EPOCH":"2022-08-22T22:00:00.999936","OBJECT_NAME":"STARLINK-4031","RCS_SIZE":"LARGE","ECCENTRICITY":"0.00023800","PERIOD":"95.438","MEAN_MOTION_DDOT":"0.0000000000000","RA_OF_ASC_NODE":"196.5778","APOAPSIS":"541.405","ELEMENT_SET_NO":"999","MEAN_MOTION_DOT":"0.00009527","CENTER_NAME":"EARTH","PERIAPSIS":"538.112","FILE":"3544179","GP_ID":"210779665","OBJECT_TYPE":"PAYLOAD","MEAN_MOTION":"15.08835724","TLE_LINE2":"2 52679  53.2144 196.5778 0002380  57.4617 107.0798 15.08835724  1305","CLASSIFICATION_TYPE":"U","MEAN_ELEMENT_THEORY":"SGP4","OBJECT_ID":"2022-053Z","REF_FRAME":"TEME","EPHEMERIS_TYPE":"0","MEAN_ANOMALY":"107.0798","DECAY_DATE":null,"BSTAR":"0.00061592000000","TIME_SYSTEM":"UTC","NORAD_CAT_ID":"52679","SITE":"AFETR","ARG_OF_PERICENTER":"57.4617","TLE_LINE1":"1 52679U 22053Z   22234.91667824  .00009527  00000-0  61592-3 0  9996","LAUNCH_DATE":"2022-05-18","SEMIMAJOR_AXIS":"6917.893"}];
